[{"OBJECT_NAME":"STARLINK-36222","OBJECT_ID":"2025-298Y","EPOCH":"2026-03-09T22:53:06.775296","MEAN_MOTION":14.99141398,"ECCENTRICITY":0.00022361,"INCLINATION":70.0024,"RA_OF_ASC_NODE":13.9162,"ARG_OF_PERICENTER":269.1734,"MEAN_ANOMALY":90.9169,"EPHEMERIS_TYPE":0,"CLASSIFICATION_TYPE":"U","NORAD_CAT_ID":67097,"ELEMENT_SET_NO":999,"REV_AT_EPOCH":1325,"BSTAR":0.00064348997,"MEAN_MOTION_DOT":7.756e-5,"MEAN_MOTION_DDOT":0},{"OBJECT_NAME":"COSMOS 2251 DEB","OBJECT_ID":"1993-036BGY","EPOCH":"2026-03-01T01:33:38.892672","MEAN_MOTION":14.73348638,"ECCENTRICITY":0.01207011,"INCLINATION":73.9501,"RA_OF_ASC_NODE":201.0621,"ARG_OF_PERICENTER":60.0186,"MEAN_ANOMALY":301.2902,"EPHEMERIS_TYPE":0,"CLASSIFICATION_TYPE":"U","NORAD_CAT_ID":37126,"ELEMENT_SET_NO":999,"REV_AT_EPOCH":9252,"BSTAR":0.00023487256,"MEAN_MOTION_DOT":1.671e-5,"MEAN_MOTION_DDOT":0}]
